{"type": "FeatureCollection", "features": [ {"type": "Feature", "properties": {"norad_id": 54031, "name": "COSMOS 2559 (707K)", "group": "gnss", "lat": 60.57637548534252, "lon": 18.891293994034363, "alt_km": 19136.322868550316, "timestamp": "2025-12-26T19:22:39.150731+00:00", "meta": {"OBJECT_NAME": "COSMOS 2559 (707K)", "OBJECT_ID": "2022-130A", "EPOCH": "2025-12-26T05:45:52.034112", "MEAN_MOTION": 2.13101192, "ECCENTRICITY": 0.00114646, "INCLINATION": 64.3745, "RA_OF_ASC_NODE": 320.6663, "ARG_OF_PERICENTER": 191.564, "MEAN_ANOMALY": 168.4143, "EPHEMERIS_TYPE": 0, "CLASSIFICATION_TYPE": "U", "NORAD_CAT_ID": 54031, "ELEMENT_SET_NO": 999, "REV_AT_EPOCH": 2500, "BSTAR": 0, "MEAN_MOTION_DOT": -3.6e-07, "MEAN_MOTION_DDOT": 0}, "tle": {"line1": "1 54031U 22130A   25360.24018558 -.00000036  00000+0  00000+0 0  9998", "line2": "2 54031  64.3745 320.6663 0011464 191.5640 168.4143  2.13101192 25006"}}, "geometry": {"type": "Point", "coordinates": [18.891293994034363, 60.57637548534252]}}, {"type": "Feature", "properties": {"norad_id": 54377, "name": "COSMOS 2564 (761)", "group": "gnss", "lat": -13.309280754787446, "lon": 24.850514242825167, "alt_km": 19110.581937081774, "timestamp": "2025-12-26T19:22:39.150742+00:00", "meta": {"OBJECT_NAME": "COSMOS 2564 (761)", "OBJECT_ID": "2022-161A", "EPOCH": "2025-12-26T13:17:06.645696", "MEAN_MOTION": 2.13101966, "ECCENTRICITY": 0.00085418, "INCLINATION": 64.7391, "RA_OF_ASC_NODE": 198.4399, "ARG_OF_PERICENTER": 203.4859, "MEAN_ANOMALY": 156.5302, "EPHEMERIS_TYPE": 0, "CLASSIFICATION_TYPE": "U", "NORAD_CAT_ID": 54377, "ELEMENT_SET_NO": 999, "REV_AT_EPOCH": 2395, "BSTAR": 0, "MEAN_MOTION_DOT": 1.15e-06, "MEAN_MOTION_DDOT": 0}, "tle": {"line1": "1 54377U 22161A   25360.55354914  .00000115  00000+0  00000+0 0  9995", "line2": "2 54377  64.7391 198.4399 0008541 203.4859 156.5302  2.13101966 23950"}}, "geometry": {"type": "Point", "coordinates": [24.850514242825167, -13.309280754787446]}}, {"type": "Feature", "properties": {"norad_id": 55268, "name": "GPS BIII-6  (PRN 28)", "group": "gnss", "lat": -53.94569635188868, "lon": 48.73504067023581, "alt_km": 20189.714696175077, "timestamp": "2025-12-26T19:22:39.150753+00:00", "meta": {"OBJECT_NAME": "GPS BIII-6  (PRN 28)", "OBJECT_ID": "2023-009A", "EPOCH": "2025-12-22T10:59:58.065216", "MEAN_MOTION": 2.00554901, "ECCENTRICITY": 0.00037047, "INCLINATION": 55.1065, "RA_OF_ASC_NODE": 155.4638, "ARG_OF_PERICENTER": 355.7912, "MEAN_ANOMALY": 4.4255, "EPHEMERIS_TYPE": 0, "CLASSIFICATION_TYPE": "U", "NORAD_CAT_ID": 55268, "ELEMENT_SET_NO": 999, "REV_AT_EPOCH": 2170, "BSTAR": 0, "MEAN_MOTION_DOT": 7.4e-07, "MEAN_MOTION_DDOT": 0}, "tle": {"line1": "1 55268U 23009A   25356.45831094  .00000074  00000+0  00000+0 0  9994", "line2": "2 55268  55.1065 155.4638 0003704 355.7912   4.4255  2.00554901 21704"}}, "geometry": {"type": "Point", "coordinates": [48.73504067023581, -53.94569635188868]}}, {"type": "Feature", "properties": {"norad_id": 56564, "name": "BEIDOU-3 G4 (C62)", "group": "gnss", "lat": -0.7004556157897612, "lon": -173.74486107178845, "alt_km": 35776.198412202415, "timestamp": "2025-12-26T19:22:39.150767+00:00", "meta": {"OBJECT_NAME": "BEIDOU-3 G4 (C62)", "OBJECT_ID": "2023-066A", "EPOCH": "2025-12-26T15:11:02.876352", "MEAN_MOTION": 1.00270623, "ECCENTRICITY": 0.00025142, "INCLINATION": 0.7862, "RA_OF_ASC_NODE": 303.1351, "ARG_OF_PERICENTER": 230.5978, "MEAN_ANOMALY": 309.4542, "EPHEMERIS_TYPE": 0, "CLASSIFICATION_TYPE": "U", "NORAD_CAT_ID": 56564, "ELEMENT_SET_NO": 999, "REV_AT_EPOCH": 966, "BSTAR": 0, "MEAN_MOTION_DOT": -8.9e-07, "MEAN_MOTION_DDOT": 0}, "tle": {"line1": "1 56564U 23066A   25360.63267218 -.00000089  00000+0  00000+0 0  9990", "line2": "2 56564   0.7862 303.1351 0002514 230.5978 309.4542  1.00270623  9662"}}, "geometry": {"type": "Point", "coordinates": [-173.74486107178845, -0.7004556157897612]}}, {"type": "Feature", "properties": {"norad_id": 56759, "name": "NVS-01 (IRNSS-1J)", "group": "gnss", "lat": -2.564316427978054, "lon": 155.65939241422663, "alt_km": 35801.82764512984, "timestamp": "2025-12-26T19:22:39.150781+00:00", "meta": {"OBJECT_NAME": "NVS-01 (IRNSS-1J)", "OBJECT_ID": "2023-076A", "EPOCH": "2025-12-26T13:30:21.648384", "MEAN_MOTION": 1.00270116, "ECCENTRICITY": 0.00089595, "INCLINATION": 2.5859, "RA_OF_ASC_NODE": 251.1085, "ARG_OF_PERICENTER": 17.6895, "MEAN_ANOMALY": 158.6579, "EPHEMERIS_TYPE": 0, "CLASSIFICATION_TYPE": "U", "NORAD_CAT_ID": 56759, "ELEMENT_SET_NO": 999, "REV_AT_EPOCH": 938, "BSTAR": 0, "MEAN_MOTION_DOT": -3.12e-06, "MEAN_MOTION_DDOT": 0}, "tle": {"line1": "1 56759U 23076A   25360.56275056 -.00000312  00000+0  00000+0 0  9997", "line2": "2 56759   2.5859 251.1085 0008959  17.6895 158.6579  1.00270116  9381"}}, "geometry": {"type": "Point", "coordinates": [155.65939241422663, -2.564316427978054]}}, {"type": "Feature", "properties": {"norad_id": 57517, "name": "COSMOS 2569 (703K)", "group": "gnss", "lat": -3.93527591533797, "lon": -99.73060481383253, "alt_km": 19137.032023058055, "timestamp": "2025-12-26T19:22:39.150793+00:00", "meta": {"OBJECT_NAME": "COSMOS 2569 (703K)", "OBJECT_ID": "2023-114A", "EPOCH": "2025-12-26T02:20:34.905408", "MEAN_MOTION": 2.13103952, "ECCENTRICITY": 0.00110098, "INCLINATION": 65.2009, "RA_OF_ASC_NODE": 78.4621, "ARG_OF_PERICENTER": 287.2132, "MEAN_ANOMALY": 72.7147, "EPHEMERIS_TYPE": 0, "CLASSIFICATION_TYPE": "U", "NORAD_CAT_ID": 57517, "ELEMENT_SET_NO": 999, "REV_AT_EPOCH": 1857, "BSTAR": 0, "MEAN_MOTION_DOT": -5e-08, "MEAN_MOTION_DDOT": 0}, "tle": {"line1": "1 57517U 23114A   25360.09762622 -.00000005  00000+0  00000+0 0  9990", "line2": "2 57517  65.2009  78.4621 0011009 287.2132  72.7147  2.13103952 18578"}}, "geometry": {"type": "Point", "coordinates": [-99.73060481383253, -3.93527591533797]}}, {"type": "Feature", "properties": {"norad_id": 58654, "name": "BEIDOU-3 M28 (C50)", "group": "gnss", "lat": -55.42488418884722, "lon": -15.117483708621496, "alt_km": 21525.838297221042, "timestamp": "2025-12-26T19:22:39.150803+00:00", "meta": {"OBJECT_NAME": "BEIDOU-3 M28 (C50)", "OBJECT_ID": "2023-207A", "EPOCH": "2025-12-26T09:34:30.666720", "MEAN_MOTION": 1.86229622, "ECCENTRICITY": 0.0002968, "INCLINATION": 55.596, "RA_OF_ASC_NODE": 68.1388, "ARG_OF_PERICENTER": 276.5456, "MEAN_ANOMALY": 83.472, "EPHEMERIS_TYPE": 0, "CLASSIFICATION_TYPE": "U", "NORAD_CAT_ID": 58654, "ELEMENT_SET_NO": 999, "REV_AT_EPOCH": 1362, "BSTAR": 0, "MEAN_MOTION_DOT": -3.3e-07, "MEAN_MOTION_DDOT": 0}, "tle": {"line1": "1 58654U 23207A   25360.39896605 -.00000033  00000+0  00000+0 0  9999", "line2": "2 58654  55.5960  68.1388 0002968 276.5456  83.4720  1.86229622 13628"}}, "geometry": {"type": "Point", "coordinates": [-15.117483708621496, -55.42488418884722]}}, {"type": "Feature", "properties": {"norad_id": 58655, "name": "BEIDOU-3 M26 (C48)", "group": "gnss", "lat": 38.91244356054585, "lon": 101.66433992699879, "alt_km": 21533.406949529224, "timestamp": "2025-12-26T19:22:39.150817+00:00", "meta": {"OBJECT_NAME": "BEIDOU-3 M26 (C48)", "OBJECT_ID": "2023-207B", "EPOCH": "2025-12-26T04:42:57.397824", "MEAN_MOTION": 1.86231148, "ECCENTRICITY": 0.00042709, "INCLINATION": 55.5979, "RA_OF_ASC_NODE": 68.1319, "ARG_OF_PERICENTER": 261.8376, "MEAN_ANOMALY": 98.1658, "EPHEMERIS_TYPE": 0, "CLASSIFICATION_TYPE": "U", "NORAD_CAT_ID": 58655, "ELEMENT_SET_NO": 999, "REV_AT_EPOCH": 1360, "BSTAR": 0, "MEAN_MOTION_DOT": -3.2e-07, "MEAN_MOTION_DDOT": 0}, "tle": {"line1": "1 58655U 23207B   25360.19649766 -.00000032  00000+0  00000+0 0  9991", "line2": "2 58655  55.5979  68.1319 0004270 261.8376  98.1658  1.86231148 13606"}}, "geometry": {"type": "Point", "coordinates": [101.66433992699879, 38.91244356054585]}}, {"type": "Feature", "properties": {"norad_id": 59598, "name": "GSAT0225 (GALILEO 29)", "group": "gnss", "lat": -54.9850095510435, "lon": 19.13284575157416, "alt_km": 23226.912487777136, "timestamp": "2025-12-26T19:22:39.150828+00:00", "meta": {"OBJECT_NAME": "GSAT0225 (GALILEO 29)", "OBJECT_ID": "2024-079A", "EPOCH": "2025-12-25T18:42:53.226144", "MEAN_MOTION": 1.70474814, "ECCENTRICITY": 0.00021774, "INCLINATION": 55.0084, "RA_OF_ASC_NODE": 105.9312, "ARG_OF_PERICENTER": 191.4017, "MEAN_ANOMALY": 169.7242, "EPHEMERIS_TYPE": 0, "CLASSIFICATION_TYPE": "U", "NORAD_CAT_ID": 59598, "ELEMENT_SET_NO": 999, "REV_AT_EPOCH": 1036, "BSTAR": 0, "MEAN_MOTION_DOT": 1.7e-07, "MEAN_MOTION_DDOT": 0}, "tle": {"line1": "1 59598U 24079A   25359.77978271  .00000017  00000+0  00000+0 0  9996", "line2": "2 59598  55.0084 105.9312 0002177 191.4017 169.7242  1.70474814 10368"}}, "geometry": {"type": "Point", "coordinates": [19.13284575157416, -54.9850095510435]}}, {"type": "Feature", "properties": {"norad_id": 59600, "name": "GSAT0227 (GALILEO 30)", "group": "gnss", "lat": 16.813782305877066, "lon": -86.30435087654037, "alt_km": 23213.873858384828, "timestamp": "2025-12-26T19:22:39.150839+00:00", "meta": {"OBJECT_NAME": "GSAT0227 (GALILEO 30)", "OBJECT_ID": "2024-079C", "EPOCH": "2025-12-21T20:31:35.455872", "MEAN_MOTION": 1.70474868, "ECCENTRICITY": 0.00028355, "INCLINATION": 55.0019, "RA_OF_ASC_NODE": 106.0394, "ARG_OF_PERICENTER": 117.3615, "MEAN_ANOMALY": 242.6419, "EPHEMERIS_TYPE": 0, "CLASSIFICATION_TYPE": "U", "NORAD_CAT_ID": 59600, "ELEMENT_SET_NO": 999, "REV_AT_EPOCH": 1034, "BSTAR": 0, "MEAN_MOTION_DOT": 4e-08, "MEAN_MOTION_DDOT": 0}, "tle": {"line1": "1 59600U 24079C   25355.85527148  .00000004  00000+0  00000+0 0  9994", "line2": "2 59600  55.0019 106.0394 0002835 117.3615 242.6419  1.70474868 10348"}}, "geometry": {"type": "Point", "coordinates": [-86.30435087654037, 16.813782305877066]}}]}